OBJECT_NAME,OBJECT_ID,EPOCH,MEAN_MOTION,ECCENTRICITY,INCLINATION,RA_OF_ASC_NODE,ARG_OF_PERICENTER,MEAN_ANOMALY,EPHEMERIS_TYPE,CLASSIFICATION_TYPE,NORAD_CAT_ID,ELEMENT_SET_NO,REV_AT_EPOCH,BSTAR,MEAN_MOTION_DOT,MEAN_MOTION_DDOT
GLOBALSTAR M069,2007-020C,2026-07-22T08:15:19.048608,12.23472540,.00014862,52.0018,152.6174,226.2046,297.9391,0,U,31573,999,88310,.36290273E-3,-.53E-6,0
GLOBALSTAR M072,2007-020D,2026-07-22T10:33:27.190656,11.91658759,.00016331,51.9955,6.3933,48.1342,337.6937,0,U,31574,999,87918,-.55494365E-4,-.88E-6,0
GLOBALSTAR M066,2007-048C,2026-07-22T07:50:47.963328,12.30390412,.00054808,51.9610,317.0380,116.3209,278.9500,0,U,32265,999,86455,.59144625E-3,-.25E-6,0
GLOBALSTAR M079,2010-054A,2026-07-22T18:20:41.440128,12.62266424,.00011132,52.0059,0.3677,89.9803,309.6942,0,U,37188,999,72704,.26196411E-4,-.99E-6,0
GLOBALSTAR M074,2010-054B,2026-07-22T16:59:37.558176,12.62262042,.00008332,52.0038,359.7991,104.9572,278.6412,0,U,37189,999,72764,.616184E-5,-.103E-5,0
GLOBALSTAR M076,2010-054C,2026-07-22T20:16:02.094816,12.62262687,.00010806,52.0053,359.5904,102.3636,61.2519,0,U,37190,999,72737,.12609369E-3,-.81E-6,0
GLOBALSTAR M077,2010-054D,2026-07-22T17:31:56.056224,11.67547108,.00021463,51.9963,89.0814,239.1059,154.5013,0,U,37191,999,72529,-.28353064E-3,-.93E-6,0
GLOBALSTAR M075,2010-054E,2026-07-22T19:50:28.747968,12.62267903,.0000796,51.9957,41.6779,75.7772,307.8337,0,U,37192,999,72644,-.8712117E-5,-.105E-5,0
GLOBALSTAR M073,2010-054F,2026-07-22T18:41:19.252320,12.62266975,.00009659,52.0079,315.9537,108.4252,55.1213,0,U,37193,999,72842,.24966392E-4,-.99E-6,0
GLOBALSTAR M083,2011-033A,2026-07-22T15:12:11.808864,12.62258471,.00007653,51.9856,264.5775,113.2846,51.2146,0,U,37739,999,69742,.58112751E-4,-.93E-6,0
GLOBALSTAR M088,2011-033B,2026-07-22T21:26:24.728064,12.62269574,.00001864,52.0194,170.2966,32.3048,352.4969,0,U,37740,999,69300,.10601764E-3,-.85E-6,0
GLOBALSTAR M091,2011-033C,2026-07-22T19:54:19.058400,12.62264367,.00005986,51.9992,133.4047,36.3048,358.2285,0,U,37741,999,69378,.50791479E-4,-.95E-6,0
GLOBALSTAR M085,2011-033D,2026-07-22T17:43:31.895904,12.62264539,.00009103,52.0129,85.0047,54.7580,346.8564,0,U,37742,999,69428,-.1392721E-5,-.104E-5,0
GLOBALSTAR M081,2011-033E,2026-07-22T14:21:52.966080,12.62265457,.00007777,51.9960,87.8265,64.8097,300.0557,0,U,37743,999,69441,.3532486E-4,-.97E-6,0
GLOBALSTAR M089,2011-033F,2026-07-22T19:10:36.336288,12.62267677,.00007236,51.9941,41.3673,99.1495,278.4393,0,U,37744,999,69528,.18696051E-4,-.1E-5,0
GLOBALSTAR M084,2011-080A,2026-07-22T22:15:53.807040,12.62263728,.00006587,52.0004,268.4782,144.0188,38.2655,0,U,38040,999,67327,.5815102E-4,-.93E-6,0
GLOBALSTAR M080,2011-080B,2026-07-22T21:35:15.867744,12.62257646,.00002987,52.0054,270.2953,64.0996,119.5345,0,U,38041,999,67339,.47951456E-4,-.95E-6,0
GLOBALSTAR M082,2011-080C,2026-07-22T06:12:19.113984,12.62264365,.00002128,52.0051,227.7492,49.6438,30.1960,0,U,38042,999,67402,.6069296E-4,-.93E-6,0
GLOBALSTAR M092,2011-080D,2026-07-22T19:20:02.570784,12.62268010,.00007071,52.0104,316.4828,112.8753,53.4140,0,U,38043,999,67254,.91413259E-4,-.87E-6,0
GLOBALSTAR M090,2011-080E,2026-07-22T18:47:09.767616,12.62269656,.00003885,52.0097,220.1205,78.0793,103.8667,0,U,38044,999,67420,.86945586E-4,-.88E-6,0
GLOBALSTAR M086,2011-080F,2026-07-22T11:35:55.595040,12.62287851,.00013971,51.9868,220.9029,121.9821,42.6812,0,U,38045,999,67411,.64872662E-4,-.92E-6,0
GLOBALSTAR M097,2013-005A,2026-07-22T13:23:43.077408,12.62271291,.0000582,52.0041,135.6627,47.8826,312.2090,0,U,39072,999,62137,-.61011602E-4,-.115E-5,0
GLOBALSTAR M093,2013-005B,2026-07-22T12:45:13.172544,12.62266443,.00008122,52.0101,129.1050,54.3817,305.7125,0,U,39073,999,62132,.42616733E-4,-.96E-6,0
GLOBALSTAR M094,2013-005C,2026-07-22T07:02:56.738400,12.62264268,.0001046,51.9970,43.9101,74.6470,285.4512,0,U,39074,999,62290,-.14109705E-4,-.106E-5,0
GLOBALSTAR M096,2013-005D,2026-07-22T22:34:37.119360,12.62265940,.00008681,52.0077,90.7705,55.8955,304.1994,0,U,39075,999,62190,.22972058E-4,-.1E-5,0
GLOBALSTAR M078,2013-005E,2026-07-22T06:43:45.366816,12.62260123,.00010085,51.9850,176.7415,358.0095,2.0767,0,U,39076,999,62044,.74677784E-4,-.9E-6,0
GLOBALSTAR M095,2013-005F,2026-07-22T22:34:21.310752,12.62264064,.000064,52.0058,172.3851,25.8093,334.2805,0,U,39077,999,62038,.33585155E-4,-.98E-6,0
GLOBALSTAR M087,2022-064A,2026-07-22T17:11:06.729504,12.62269507,.00008603,52.0014,314.2882,94.4900,265.6065,0,U,52888,999,19562,.79987101E-4,-.89E-6,0
